{"type": "FeatureCollection", "features": [ {"type": "Feature", "properties": {"norad_id": 66845, "name": "STARLINK-36068", "group": "last-30-days", "lat": -3.401703931329033, "lon": 17.430024962487785, "alt_km": 342.15546987316884, "timestamp": "2025-12-13T15:35:10.878048+00:00", "meta": {"OBJECT_NAME": "STARLINK-36068", "OBJECT_ID": "2025-280AA", "EPOCH": "2025-12-12T20:00:01.999872", "MEAN_MOTION": 15.79992683, "ECCENTRICITY": 0.00036331, "INCLINATION": 69.9916, "RA_OF_ASC_NODE": 198.5115, "ARG_OF_PERICENTER": 267.4027, "MEAN_ANOMALY": 320.512, "EPHEMERIS_TYPE": 0, "CLASSIFICATION_TYPE": "U", "NORAD_CAT_ID": 66845, "ELEMENT_SET_NO": 999, "REV_AT_EPOCH": 291, "BSTAR": -0.011236207, "MEAN_MOTION_DOT": -0.01836227, "MEAN_MOTION_DDOT": 0}, "tle": {"line1": "1 66845U 25280AA  25346.83335648 -.01836227  00000+0 -11236-1 0  9990", "line2": "2 66845  69.9916 198.5115 0003633 267.4027 320.5120 15.79992683  2918"}}, "geometry": {"type": "Point", "coordinates": [17.430024962487785, -3.401703931329033]}}, {"type": "Feature", "properties": {"norad_id": 66846, "name": "STARLINK-36055", "group": "last-30-days", "lat": 0.15148512329166736, "lon": 16.137922106533892, "alt_km": 341.99378032351433, "timestamp": "2025-12-13T15:35:10.878060+00:00", "meta": {"OBJECT_NAME": "STARLINK-36055", "OBJECT_ID": "2025-280AB", "EPOCH": "2025-12-12T20:00:01.999872", "MEAN_MOTION": 15.7993915, "ECCENTRICITY": 0.00037072, "INCLINATION": 69.9917, "RA_OF_ASC_NODE": 198.5156, "ARG_OF_PERICENTER": 269.0176, "MEAN_ANOMALY": 315.2358, "EPHEMERIS_TYPE": 0, "CLASSIFICATION_TYPE": "U", "NORAD_CAT_ID": 66846, "ELEMENT_SET_NO": 999, "REV_AT_EPOCH": 291, "BSTAR": -0.011167981, "MEAN_MOTION_DOT": -0.01822586, "MEAN_MOTION_DDOT": 0}, "tle": {"line1": "1 66846U 25280AB  25346.83335648 -.01822586  00000+0 -11168-1 0  9998", "line2": "2 66846  69.9917 198.5156 0003707 269.0176 315.2358 15.79939150  2914"}}, "geometry": {"type": "Point", "coordinates": [16.137922106533892, 0.15148512329166736]}}, {"type": "Feature", "properties": {"norad_id": 66847, "name": "STARLINK-36061", "group": "last-30-days", "lat": -1.608080603815768, "lon": 16.777388879167408, "alt_km": 342.09020541044447, "timestamp": "2025-12-13T15:35:10.878070+00:00", "meta": {"OBJECT_NAME": "STARLINK-36061", "OBJECT_ID": "2025-280AC", "EPOCH": "2025-12-12T20:00:01.999872", "MEAN_MOTION": 15.79968293, "ECCENTRICITY": 0.00037172, "INCLINATION": 69.9917, "RA_OF_ASC_NODE": 198.5138, "ARG_OF_PERICENTER": 269.0585, "MEAN_ANOMALY": 316.9934, "EPHEMERIS_TYPE": 0, "CLASSIFICATION_TYPE": "U", "NORAD_CAT_ID": 66847, "ELEMENT_SET_NO": 999, "REV_AT_EPOCH": 286, "BSTAR": -0.011182118, "MEAN_MOTION_DOT": -0.01826771, "MEAN_MOTION_DDOT": 0}, "tle": {"line1": "1 66847U 25280AC  25346.83335648 -.01826771  00000+0 -11182-1 0  9995", "line2": "2 66847  69.9917 198.5138 0003717 269.0585 316.9934 15.79968293  2862"}}, "geometry": {"type": "Point", "coordinates": [16.777388879167408, -1.608080603815768]}}, {"type": "Feature", "properties": {"norad_id": 66848, "name": "STARLINK-36091", "group": "last-30-days", "lat": -25.008319377551462, "lon": 86.71860696321792, "alt_km": 306.62510231094166, "timestamp": "2025-12-13T15:35:10.878080+00:00", "meta": {"OBJECT_NAME": "STARLINK-36091", "OBJECT_ID": "2025-281A", "EPOCH": "2025-12-12T20:00:01.999872", "MEAN_MOTION": 15.90522465, "ECCENTRICITY": 0.00018183, "INCLINATION": 43.001, "RA_OF_ASC_NODE": 121.8181, "ARG_OF_PERICENTER": 280.7024, "MEAN_ANOMALY": 44.9948, "EPHEMERIS_TYPE": 0, "CLASSIFICATION_TYPE": "U", "NORAD_CAT_ID": 66848, "ELEMENT_SET_NO": 999, "REV_AT_EPOCH": 141, "BSTAR": -0.003358174, "MEAN_MOTION_DOT": -0.00964525, "MEAN_MOTION_DDOT": 0}, "tle": {"line1": "1 66848U 25281A   25346.83335648 -.00964525  00000+0 -33582-2 0  9995", "line2": "2 66848  43.0010 121.8181 0001818 280.7024  44.9948 15.90522465  1418"}}, "geometry": {"type": "Point", "coordinates": [86.71860696321792, -25.008319377551462]}}, {"type": "Feature", "properties": {"norad_id": 66849, "name": "STARLINK-36102", "group": "last-30-days", "lat": -23.625057095295393, "lon": 88.75675639383866, "alt_km": 306.5515719544601, "timestamp": "2025-12-13T15:35:10.878090+00:00", "meta": {"OBJECT_NAME": "STARLINK-36102", "OBJECT_ID": "2025-281B", "EPOCH": "2025-12-12T20:00:01.999872", "MEAN_MOTION": 15.90558114, "ECCENTRICITY": 0.00016432, "INCLINATION": 43.0012, "RA_OF_ASC_NODE": 121.8119, "ARG_OF_PERICENTER": 281.6245, "MEAN_ANOMALY": 46.2999, "EPHEMERIS_TYPE": 0, "CLASSIFICATION_TYPE": "U", "NORAD_CAT_ID": 66849, "ELEMENT_SET_NO": 999, "REV_AT_EPOCH": 141, "BSTAR": -0.0033644472, "MEAN_MOTION_DOT": -0.00967666, "MEAN_MOTION_DDOT": 0}, "tle": {"line1": "1 66849U 25281B   25346.83335648 -.00967666  00000+0 -33644-2 0  9994", "line2": "2 66849  43.0012 121.8119 0001643 281.6245  46.2999 15.90558114  1414"}}, "geometry": {"type": "Point", "coordinates": [88.75675639383866, -23.625057095295393]}}, {"type": "Feature", "properties": {"norad_id": 66850, "name": "STARLINK-36105", "group": "last-30-days", "lat": -21.747490745984695, "lon": 91.39821869600306, "alt_km": 306.335191032872, "timestamp": "2025-12-13T15:35:10.878100+00:00", "meta": {"OBJECT_NAME": "STARLINK-36105", "OBJECT_ID": "2025-281C", "EPOCH": "2025-12-12T20:00:01.999872", "MEAN_MOTION": 15.90617636, "ECCENTRICITY": 0.00017272, "INCLINATION": 43.0009, "RA_OF_ASC_NODE": 121.8046, "ARG_OF_PERICENTER": 282.1385, "MEAN_ANOMALY": 48.7563, "EPHEMERIS_TYPE": 0, "CLASSIFICATION_TYPE": "U", "NORAD_CAT_ID": 66850, "ELEMENT_SET_NO": 999, "REV_AT_EPOCH": 141, "BSTAR": -0.0034406996, "MEAN_MOTION_DOT": -0.00990132, "MEAN_MOTION_DDOT": 0}, "tle": {"line1": "1 66850U 25281C   25346.83335648 -.00990132  00000+0 -34407-2 0  9998", "line2": "2 66850  43.0009 121.8046 0001727 282.1385  48.7563 15.90617636  1414"}}, "geometry": {"type": "Point", "coordinates": [91.39821869600306, -21.747490745984695]}}, {"type": "Feature", "properties": {"norad_id": 66851, "name": "STARLINK-36094", "group": "last-30-days", "lat": -20.243630105151883, "lon": 93.42420005642154, "alt_km": 306.10228743851076, "timestamp": "2025-12-13T15:35:10.878115+00:00", "meta": {"OBJECT_NAME": "STARLINK-36094", "OBJECT_ID": "2025-281D", "EPOCH": "2025-12-12T20:00:01.999872", "MEAN_MOTION": 15.90646371, "ECCENTRICITY": 0.00016911, "INCLINATION": 43.0008, "RA_OF_ASC_NODE": 121.7987, "ARG_OF_PERICENTER": 284.2179, "MEAN_ANOMALY": 48.9891, "EPHEMERIS_TYPE": 0, "CLASSIFICATION_TYPE": "U", "NORAD_CAT_ID": 66851, "ELEMENT_SET_NO": 999, "REV_AT_EPOCH": 141, "BSTAR": -0.0033998371, "MEAN_MOTION_DOT": -0.00980863, "MEAN_MOTION_DDOT": 0}, "tle": {"line1": "1 66851U 25281D   25346.83335648 -.00980863  00000+0 -33998-2 0  9993", "line2": "2 66851  43.0008 121.7987 0001691 284.2179  48.9891 15.90646371  1415"}}, "geometry": {"type": "Point", "coordinates": [93.42420005642154, -20.243630105151883]}}, {"type": "Feature", "properties": {"norad_id": 66852, "name": "STARLINK-35992", "group": "last-30-days", "lat": -18.78526025775062, "lon": 95.32377150496845, "alt_km": 305.95152705905, "timestamp": "2025-12-13T15:35:10.878125+00:00", "meta": {"OBJECT_NAME": "STARLINK-35992", "OBJECT_ID": "2025-281E", "EPOCH": "2025-12-12T20:00:01.999872", "MEAN_MOTION": 15.90694413, "ECCENTRICITY": 0.00016275, "INCLINATION": 43.0011, "RA_OF_ASC_NODE": 121.7932, "ARG_OF_PERICENTER": 286.0426, "MEAN_ANOMALY": 49.3808, "EPHEMERIS_TYPE": 0, "CLASSIFICATION_TYPE": "U", "NORAD_CAT_ID": 66852, "ELEMENT_SET_NO": 999, "REV_AT_EPOCH": 141, "BSTAR": -0.003449697, "MEAN_MOTION_DOT": -0.00995955, "MEAN_MOTION_DDOT": 0}, "tle": {"line1": "1 66852U 25281E   25346.83335648 -.00995955  00000+0 -34497-2 0  9997", "line2": "2 66852  43.0011 121.7932 0001627 286.0426  49.3808 15.90694413  1417"}}, "geometry": {"type": "Point", "coordinates": [95.32377150496845, -18.78526025775062]}}, {"type": "Feature", "properties": {"norad_id": 66853, "name": "STARLINK-35986", "group": "last-30-days", "lat": -16.658361471629984, "lon": 97.9941101419008, "alt_km": 305.7074704304523, "timestamp": "2025-12-13T15:35:10.878135+00:00", "meta": {"OBJECT_NAME": "STARLINK-35986", "OBJECT_ID": "2025-281F", "EPOCH": "2025-12-12T20:00:01.999872", "MEAN_MOTION": 15.9074033, "ECCENTRICITY": 0.0001745, "INCLINATION": 43.001, "RA_OF_ASC_NODE": 121.7852, "ARG_OF_PERICENTER": 281.8086, "MEAN_ANOMALY": 56.8, "EPHEMERIS_TYPE": 0, "CLASSIFICATION_TYPE": "U", "NORAD_CAT_ID": 66853, "ELEMENT_SET_NO": 999, "REV_AT_EPOCH": 141, "BSTAR": -0.0034422928, "MEAN_MOTION_DOT": -0.00996227, "MEAN_MOTION_DDOT": 0}, "tle": {"line1": "1 66853U 25281F   25346.83335648 -.00996227  00000+0 -34423-2 0  9990", "line2": "2 66853  43.0010 121.7852 0001745 281.8086  56.8000 15.90740330  1411"}}, "geometry": {"type": "Point", "coordinates": [97.9941101419008, -16.658361471629984]}}, {"type": "Feature", "properties": {"norad_id": 66854, "name": "STARLINK-36087", "group": "last-30-days", "lat": -14.600903760125261, "lon": 100.48222447373476, "alt_km": 305.52222183411504, "timestamp": "2025-12-13T15:35:10.878145+00:00", "meta": {"OBJECT_NAME": "STARLINK-36087", "OBJECT_ID": "2025-281G", "EPOCH": "2025-12-12T20:00:01.999872", "MEAN_MOTION": 15.9079079, "ECCENTRICITY": 0.0001737, "INCLINATION": 43.001, "RA_OF_ASC_NODE": 121.7771, "ARG_OF_PERICENTER": 279.8327, "MEAN_ANOMALY": 61.8172, "EPHEMERIS_TYPE": 0, "CLASSIFICATION_TYPE": "U", "NORAD_CAT_ID": 66854, "ELEMENT_SET_NO": 999, "REV_AT_EPOCH": 141, "BSTAR": -0.0034683999, "MEAN_MOTION_DOT": -0.01005351, "MEAN_MOTION_DDOT": 0}, "tle": {"line1": "1 66854U 25281G   25346.83335648 -.01005351  00000+0 -34684-2 0  9990", "line2": "2 66854  43.0010 121.7771 0001737 279.8327  61.8172 15.90790790  1419"}}, "geometry": {"type": "Point", "coordinates": [100.48222447373476, -14.600903760125261]}}]}